[{"OBJECT_NAME":"STARLINK-3774","OBJECT_ID":"2022-053AA","EPOCH":"2026-03-09T11:23:59.866080","MEAN_MOTION":15.08839742,"ECCENTRICITY":0.00012661,"INCLINATION":53.2178,"RA_OF_ASC_NODE":144.8536,"ARG_OF_PERICENTER":65.5065,"MEAN_ANOMALY":294.6059,"EPHEMERIS_TYPE":0,"CLASSIFICATION_TYPE":"U","NORAD_CAT_ID":52680,"ELEMENT_SET_NO":999,"REV_AT_EPOCH":21112,"BSTAR":1.1530099e-5,"MEAN_MOTION_DOT":-1.04e-6,"MEAN_MOTION_DDOT":0},{"OBJECT_NAME":"OBJECT D","OBJECT_ID":"2025-013D","EPOCH":"2026-03-09T22:45:56.369376","MEAN_MOTION":15.10588544,"ECCENTRICITY":0.0008827,"INCLINATION":97.6457,"RA_OF_ASC_NODE":238.3603,"ARG_OF_PERICENTER":18.3993,"MEAN_ANOMALY":341.7554,"EPHEMERIS_TYPE":0,"CLASSIFICATION_TYPE":"U","NORAD_CAT_ID":62732,"ELEMENT_SET_NO":999,"REV_AT_EPOCH":6229,"BSTAR":0.00036300228,"MEAN_MOTION_DOT":5.935e-5,"MEAN_MOTION_DDOT":0}]
